OBJECT_NAME,OBJECT_ID,EPOCH,MEAN_MOTION,ECCENTRICITY,INCLINATION,RA_OF_ASC_NODE,ARG_OF_PERICENTER,MEAN_ANOMALY,EPHEMERIS_TYPE,CLASSIFICATION_TYPE,NORAD_CAT_ID,ELEMENT_SET_NO,REV_AT_EPOCH,BSTAR,MEAN_MOTION_DOT,MEAN_MOTION_DDOT
NUSANTARA TIGA (SATRIA),2023-086A,2026-06-17T15:18:38.568960,1.00268022,.0003151,0.0355,355.6705,353.4018,292.4678,0,U,57045,999,976,0,-.24E-5,0
H2SAT (HEINRICH HERTZ),2023-093A,2026-06-17T19:48:57.374784,1.00270720,.0000824,0.0574,105.7928,93.2357,4.9923,0,U,57213,999,1092,0,-.3E-7,0
SYRACUSE 4B,2023-093B,2026-06-17T19:46:57.568224,1.00270157,.0000142,0.0179,25.2217,182.4783,348.6748,0,U,57214,999,697,0,-.59E-6,0
JUPITER 3 (ECHOSTAR 24),2023-108A,2026-06-17T12:37:47.682048,1.00269888,.0001308,0.0213,354.6242,89.7204,275.6704,0,U,57479,999,1064,0,0,0
GALAXY 37 (G-37),2023-112A,2026-06-17T15:47:09.963744,1.00272276,.0001757,0.0168,330.4587,110.7242,294.5174,0,U,57493,999,1054,0,.43E-6,0
LUDI TANCE-4 01A,2023-120A,2026-06-17T02:33:21.719232,1.00268813,.0001162,15.1025,193.9641,44.3145,155.1098,0,U,57624,999,1054,0,-.176E-5,0
TJS-10,2023-169A,2026-06-17T19:12:58.321728,1.00274368,.0003814,2.5467,80.4827,110.1676,96.0447,0,U,58204,999,954,0,-.256E-5,0
ZHONGXING-6E,2023-172A,2026-06-17T20:21:44.414208,1.00271030,.0002715,0.0407,88.5767,352.7541,245.7296,0,U,58253,999,966,0,-.367E-5,0
YAOGAN-41,2023-197A,2026-06-17T20:23:51.710784,1.00269757,.0014014,3.1270,313.1631,193.8772,188.2204,0,U,58582,999,933,0,-.366E-5,0
OVZON-3,2024-003A,2026-06-17T19:23:53.453184,1.00272525,.0000201,0.0098,42.5842,192.5138,21.6103,0,U,58698,999,745,0,.46E-6,0
INSAT-3DS,2024-033A,2026-06-17T20:12:07.835040,1.00271295,.0001039,0.0443,109.1301,325.9093,216.1829,0,U,58990,999,4707,0,-.161E-5,0
MERAH PUTIH 2,2024-035A,2026-06-17T20:48:01.105344,1.00269669,.0000937,0.0179,318.4296,112.6829,259.9488,0,U,58995,999,859,0,-.363E-5,0
TJS-11,2024-037A,2026-06-17T20:48:01.131264,1.00275264,.0003153,4.1983,327.1045,105.7731,257.8449,0,U,59020,999,859,0,-.369E-5,0
HULIANWAN GAOGUI-01 (HG-01),2024-040A,2026-06-17T19:58:18.978240,1.00269802,.0002742,0.0672,331.5950,66.7069,200.9182,0,U,59069,999,733,0,.15E-5,0
EUTELSAT 36D,2024-059A,2026-06-17T19:58:48.928800,1.00268928,.0000123,0.0203,22.4830,197.4743,21.7141,0,U,59346,999,815,0,0,0
PAKSAT-MM1,2024-104A,2026-06-17T16:34:18.907104,1.00266860,.0002564,0.0358,87.0267,346.0661,119.6318,0,U,59915,999,753,0,.148E-5,0
ASTRA 1P (SES-24),2024-115A,2026-06-16T02:50:23.170272,1.00266797,.0001236,0.0576,355.8510,358.0063,332.3318,0,U,60086,999,718,0,.119E-5,0
GOES 19,2024-119A,2026-06-17T19:27:17.073792,1.00271008,.0000358,0.0116,105.5698,74.9013,302.2192,0,U,60133,999,697,0,-.254E-5,0
ZHONGXING-3A,2024-122A,2026-06-17T20:37:30.583200,1.00271597,.0001093,0.0418,104.0163,21.3241,191.7088,0,U,60179,999,731,0,-.319E-5,0
TURKSAT 6A,2024-127A,2026-06-16T22:14:11.398848,1.00269722,.0001463,0.0150,219.7978,273.1741,147.7575,0,U,60233,999,701,0,0,0
HULIANWAN GAOGUI-02 (HG-02),2024-135A,2026-06-17T12:26:38.820768,1.00267686,.0007308,0.0433,1.4713,5.2904,238.8047,0,U,60327,999,750,0,-.179E-5,0
ZHONGXING-4A,2024-151A,2026-06-17T20:22:29.342208,1.00273256,.0000055,1.3119,270.8319,105.4951,313.6113,0,U,60606,999,676,0,-.367E-5,0
HULIANWAN GAOGUI-03 (HG-03),2024-181A,2026-06-17T09:44:38.705856,1.00271733,.0001152,0.0466,2.9842,86.9142,244.7856,0,U,61503,999,682,0,-.246E-5,0
DSN-3 (KIRAMEKI-3),2024-198A,2026-06-17T20:29:51.134784,1.00271492,.0000406,0.0174,15.4515,78.5229,263.6491,0,U,61733,999,592,0,-.256E-5,0
KOREASAT 6A,2024-206A,2026-06-17T20:21:51.900768,1.00270186,.0000759,0.0132,70.7491,347.2131,269.6117,0,U,61910,999,584,0,-.367E-5,0
OPTUS-X (ADS-01),2024-212A,2026-06-17T18:50:43.079712,1.00270173,.0001846,0.0198,295.2565,198.2435,211.5898,0,U,62006,999,576,0,-.149E-5,0
GSAT-N2 (GSAT-20),2024-214A,2026-06-17T20:08:08.216736,1.00269967,.0001836,0.0429,111.8898,324.2093,199.9740,0,U,62028,999,590,0,-.24E-6,0
SXM-9,2024-234A,2026-06-17T14:16:19.901856,1.00269823,.0004963,0.0129,348.1135,325.4677,81.1816,0,U,62259,999,557,0,-.21E-5,0
TJS-12,2024-246A,2026-06-17T15:18:38.569824,1.00269436,.0002048,0.6690,299.2320,81.4371,261.4197,0,U,62374,999,556,0,-.236E-5,0
NUVIEW ALPHA,2024-252B,2026-06-17T11:48:38.502720,1.00271038,.0000955,0.0577,36.4852,21.3138,302.0304,0,U,62455,999,382,0,-.22E-5,0
AGILA,2024-252C,2026-06-17T18:49:13.222848,1.00271923,.000106,0.0655,123.2769,327.1877,250.0301,0,U,62456,999,516,0,-.187E-5,0
