NUSANTARA TIGA (SATRIA) 
1 57045U 23086A   26168.63794640 -.00000240  00000+0  00000+0 0  9997
2 57045   0.0355 355.6705 0003151 353.4018 292.4678  1.00268022  9762
H2SAT (HEINRICH HERTZ)  
1 57213U 23093A   26168.82566406 -.00000003  00000+0  00000+0 0  9997
2 57213   0.0574 105.7928 0000824  93.2357   4.9923  1.00270720 10929
SYRACUSE 4B             
1 57214U 23093B   26168.82427741 -.00000059  00000+0  00000+0 0  9997
2 57214   0.0179  25.2217 0000142 182.4783 348.6748  1.00270157  6972
JUPITER 3 (ECHOSTAR 24) 
1 57479U 23108A   26168.52624632  .00000000  00000+0  00000+0 0  9997
2 57479   0.0213 354.6242 0001308  89.7204 275.6704  1.00269888 10642
GALAXY 37 (G-37)        
1 57493U 23112A   26168.65775421  .00000043  00000+0  00000+0 0  9992
2 57493   0.0168 330.4587 0001757 110.7242 294.5174  1.00272276 10541
LUDI TANCE-4 01A        
1 57624U 23120A   26168.10650138 -.00000176  00000+0  00000+0 0  9992
2 57624  15.1025 193.9641 0001162  44.3145 155.1098  1.00268813 10542
TJS-10                  
1 58204U 23169A   26168.80067502 -.00000256  00000+0  00000+0 0  9993
2 58204   2.5467  80.4827 0003814 110.1676  96.0447  1.00274368  9541
ZHONGXING-6E            
1 58253U 23172A   26168.84843072 -.00000367  00000+0  00000+0 0  9992
2 58253   0.0407  88.5767 0002715 352.7541 245.7296  1.00271030  9669
YAOGAN-41               
1 58582U 23197A   26168.84990406 -.00000366  00000+0  00000+0 0  9997
2 58582   3.1270 313.1631 0014014 193.8772 188.2204  1.00269757  9335
OVZON-3                 
1 58698U 24003A   26168.80825756  .00000046  00000+0  00000+0 0  9997
2 58698   0.0098  42.5842 0000201 192.5138  21.6103  1.00272525  7455
INSAT-3DS               
1 58990U 24033A   26168.84175735 -.00000161  00000+0  00000+0 0  9993
2 58990   0.0443 109.1301 0001039 325.9093 216.1829  1.00271295 47077
MERAH PUTIH 2           
1 58995U 24035A   26168.86667946 -.00000363  00000+0  00000+0 0  9996
2 58995   0.0179 318.4296 0000937 112.6829 259.9488  1.00269669  8592
TJS-11                  
1 59020U 24037A   26168.86667976 -.00000369  00000+0  00000+0 0  9997
2 59020   4.1983 327.1045 0003153 105.7731 257.8449  1.00275264  8599
HULIANWAN GAOGUI-01 (H*)
1 59069U 24040A   26168.83216410  .00000150  00000+0  00000+0 0  9991
2 59069   0.0672 331.5950 0002742  66.7069 200.9182  1.00269802  7334
EUTELSAT 36D            
1 59346U 24059A   26168.83251075  .00000000  00000+0  00000+0 0  9999
2 59346   0.0203  22.4830 0000123 197.4743  21.7141  1.00268928  8150
PAKSAT-MM1              
1 59915U 24104A   26168.69049661  .00000148  00000+0  00000+0 0  9995
2 59915   0.0358  87.0267 0002564 346.0661 119.6318  1.00266860  7533
ASTRA 1P (SES-24)       
1 60086U 24115A   26167.11832373  .00000119  00000+0  00000+0 0  9992
2 60086   0.0576 355.8510 0001236 358.0063 332.3318  1.00266797  7181
GOES 19                 
1 60133U 24119A   26168.81061428 -.00000254  00000+0  00000+0 0  9993
2 60133   0.0116 105.5698 0000358  74.9013 302.2192  1.00271008  6977
ZHONGXING-3A            
1 60179U 24122A   26168.85938175 -.00000319  00000+0  00000+0 0  9995
2 60179   0.0418 104.0163 0001093  21.3241 191.7088  1.00271597  7316
TURKSAT 6A              
1 60233U 24127A   26167.92652082  .00000000  00000+0  00000+0 0  9994
2 60233   0.0150 219.7978 0001463 273.1741 147.7575  1.00269722  7017
HULIANWAN GAOGUI-02 (H*)
1 60327U 24135A   26168.51850487 -.00000179  00000+0  00000+0 0  9990
2 60327   0.0433   1.4713 0007308   5.2904 238.8047  1.00267686  7504
ZHONGXING-4A            
1 60606U 24151A   26168.84895072 -.00000367  00000+0  00000+0 0  9992
2 60606   1.3119 270.8319 0000055 105.4951 313.6113  1.00273256  6763
HULIANWAN GAOGUI-03 (H*)
1 61503U 24181A   26168.40600354 -.00000246  00000+0  00000+0 0  9997
2 61503   0.0466   2.9842 0001152  86.9142 244.7856  1.00271733  6823
DSN-3 (KIRAMEKI-3)      
1 61733U 24198A   26168.85406406 -.00000256  00000+0  00000+0 0  9992
2 61733   0.0174  15.4515 0000406  78.5229 263.6491  1.00271492  5921
KOREASAT 6A             
1 61910U 24206A   26168.84851737 -.00000367  00000+0  00000+0 0  9992
2 61910   0.0132  70.7491 0000759 347.2131 269.6117  1.00270186  5849
OPTUS-X (ADS-01)        
1 62006U 24212A   26168.78522083 -.00000149  00000+0  00000+0 0  9996
2 62006   0.0198 295.2565 0001846 198.2435 211.5898  1.00270173  5762
GSAT-N2 (GSAT-20)       
1 62028U 24214A   26168.83898399 -.00000024  00000+0  00000+0 0  9996
2 62028   0.0429 111.8898 0001836 324.2093 199.9740  1.00269967  5905
SXM-9                   
1 62259U 24234A   26168.59467479 -.00000210  00000+0  00000+0 0  9995
2 62259   0.0129 348.1135 0004963 325.4677  81.1816  1.00269823  5572
TJS-12                  
1 62374U 24246A   26168.63794641 -.00000236  00000+0  00000+0 0  9993
2 62374   0.6690 299.2320 0002048  81.4371 261.4197  1.00269436  5567
NUVIEW ALPHA            
1 62455U 24252B   26168.49211230 -.00000220  00000+0  00000+0 0  9995
2 62455   0.0577  36.4852 0000955  21.3138 302.0304  1.00271038  3825
AGILA                   
1 62456U 24252C   26168.78418082 -.00000187  00000+0  00000+0 0  9994
2 62456   0.0655 123.2769 0001060 327.1877 250.0301  1.00271923  5161
